ONEWEB-0275             
1 48993U 21060AC  26008.40782005 -.00000018  00000+0 -81322-4 0  9994
2 48993  87.9037 260.5895 0001556  71.9015 288.2286 13.16594523218538
ONEWEB-0276             
1 48994U 21060AD  26008.59306446 -.00000054  00000+0 -17546-3 0  9992
2 48994  87.9036 260.5523 0001335  75.9614 284.1666 13.16592876218570
ONEWEB-0277             
1 48995U 21060AE  26008.60572313  .00000146  00000+0  34954-3 0  9995
2 48995  87.9027 260.5713 0001516  74.3373 285.7925 13.16596051218561
ONEWEB-0278             
1 48996U 21060AF  26008.59623498  .00000057  00000+0  11481-3 0  9996
2 48996  87.9036 260.5481 0001441  84.7099 275.4196 13.16594383218697
ONEWEB-0279             
1 48997U 21060AG  26008.60414936 -.00000015  00000+0 -73558-4 0  9994
2 48997  87.9038 260.5449 0001581  64.5752 295.5543 13.16594035218627
ONEWEB-0280             
1 48998U 21060AH  26008.39118297  .00000168  00000+0  40473-3 0  9998
2 48998  87.9040 260.5929 0001117  76.5118 283.6137 13.16593314218534
ONEWEB-0281             
1 48999U 21060AJ  26008.62473756  .00000023  00000+0  27083-4 0  9992
2 48999  87.9039 260.5415 0001616  74.9790 285.1520 13.16594292218635
ONEWEB-0282             
1 49000U 21060AK  26008.65480958 -.00000050  00000+0 -16403-3 0  9996
2 49000  87.9035 260.5463 0001377  71.9159 288.2122 13.16593863218611
